{"type": "FeatureCollection", "features": [ {"type": "Feature", "properties": {"norad_id": 44622, "name": "GAOFEN-10R", "group": "resource", "lat": -19.76131613202655, "lon": 114.479471867975, "alt_km": 630.9438437069566, "timestamp": "2025-12-15T20:48:53.542914+00:00", "meta": {"OBJECT_NAME": "GAOFEN-10R", "OBJECT_ID": "2019-066A", "EPOCH": "2025-12-14T22:51:45.479808", "MEAN_MOTION": 14.82801171, "ECCENTRICITY": 0.0007714, "INCLINATION": 98.0275, "RA_OF_ASC_NODE": 296.4675, "ARG_OF_PERICENTER": 35.6659, "MEAN_ANOMALY": 324.5068, "EPHEMERIS_TYPE": 0, "CLASSIFICATION_TYPE": "U", "NORAD_CAT_ID": 44622, "ELEMENT_SET_NO": 999, "REV_AT_EPOCH": 33507, "BSTAR": 0.00019785403, "MEAN_MOTION_DOT": 1.546e-05, "MEAN_MOTION_DDOT": 0}, "tle": {"line1": "1 44622U 19066A   25348.95260972  .00001546  00000+0  19785-3 0  9990", "line2": "2 44622  98.0275 296.4675 0007714  35.6659 324.5068 14.82801171335072"}}, "geometry": {"type": "Point", "coordinates": [114.479471867975, -19.76131613202655]}}, {"type": "Feature", "properties": {"norad_id": 44804, "name": "CARTOSAT-3", "group": "resource", "lat": 51.18118402641314, "lon": 40.03959849216816, "alt_km": 494.5471496723894, "timestamp": "2025-12-15T20:48:53.542924+00:00", "meta": {"OBJECT_NAME": "CARTOSAT-3", "OBJECT_ID": "2019-081A", "EPOCH": "2025-12-14T22:27:24.211296", "MEAN_MOTION": 15.19171641, "ECCENTRICITY": 0.00141312, "INCLINATION": 97.4587, "RA_OF_ASC_NODE": 48.4913, "ARG_OF_PERICENTER": 75.9473, "MEAN_ANOMALY": 284.3331, "EPHEMERIS_TYPE": 0, "CLASSIFICATION_TYPE": "U", "NORAD_CAT_ID": 44804, "ELEMENT_SET_NO": 999, "REV_AT_EPOCH": 33549, "BSTAR": 0.00015197001, "MEAN_MOTION_DOT": 3.134e-05, "MEAN_MOTION_DDOT": 0}, "tle": {"line1": "1 44804U 19081A   25348.93569689  .00003134  00000+0  15197-3 0  9992", "line2": "2 44804  97.4587  48.4913 0014131  75.9473 284.3331 15.19171641335490"}}, "geometry": {"type": "Point", "coordinates": [40.03959849216816, 51.18118402641314]}}, {"type": "Feature", "properties": {"norad_id": 44819, "name": "GAOFEN-12 01", "group": "resource", "lat": 79.32594239043996, "lon": -50.68983088413809, "alt_km": 620.59155296679, "timestamp": "2025-12-15T20:48:53.542934+00:00", "meta": {"OBJECT_NAME": "GAOFEN-12 01", "OBJECT_ID": "2019-082A", "EPOCH": "2025-12-14T23:21:29.061792", "MEAN_MOTION": 14.80659817, "ECCENTRICITY": 0.00014413, "INCLINATION": 97.8126, "RA_OF_ASC_NODE": 355.1957, "ARG_OF_PERICENTER": 220.3756, "MEAN_ANOMALY": 139.735, "EPHEMERIS_TYPE": 0, "CLASSIFICATION_TYPE": "U", "NORAD_CAT_ID": 44819, "ELEMENT_SET_NO": 999, "REV_AT_EPOCH": 32683, "BSTAR": 7.7295874e-05, "MEAN_MOTION_DOT": 5.43e-06, "MEAN_MOTION_DDOT": 0}, "tle": {"line1": "1 44819U 19082A   25348.97325303  .00000543  00000+0  77296-4 0  9996", "line2": "2 44819  97.8126 355.1957 0001441 220.3756 139.7350 14.80659817326830"}}, "geometry": {"type": "Point", "coordinates": [-50.68983088413809, 79.32594239043996]}}, {"type": "Feature", "properties": {"norad_id": 44873, "name": "CSG-1", "group": "resource", "lat": -30.44210947250813, "lon": -13.525195260923958, "alt_km": 629.1300638022376, "timestamp": "2025-12-15T20:48:53.542944+00:00", "meta": {"OBJECT_NAME": "CSG-1", "OBJECT_ID": "2019-092A", "EPOCH": "2025-12-14T22:48:15.702336", "MEAN_MOTION": 14.82167328, "ECCENTRICITY": 0.00014281, "INCLINATION": 97.881, "RA_OF_ASC_NODE": 170.2411, "ARG_OF_PERICENTER": 84.3978, "MEAN_ANOMALY": 275.7398, "EPHEMERIS_TYPE": 0, "CLASSIFICATION_TYPE": "U", "NORAD_CAT_ID": 44873, "ELEMENT_SET_NO": 999, "REV_AT_EPOCH": 32418, "BSTAR": 9.0837923e-05, "MEAN_MOTION_DOT": 6.71e-06, "MEAN_MOTION_DDOT": 0}, "tle": {"line1": "1 44873U 19092A   25348.95018174  .00000671  00000+0  90838-4 0  9999", "line2": "2 44873  97.8810 170.2411 0001428  84.3978 275.7398 14.82167328324182"}}, "geometry": {"type": "Point", "coordinates": [-13.525195260923958, -30.44210947250813]}}, {"type": "Feature", "properties": {"norad_id": 46277, "name": "NEMO-HD", "group": "resource", "lat": -55.87975122805032, "lon": 59.71157923947827, "alt_km": 452.4078788170282, "timestamp": "2025-12-15T20:48:53.542954+00:00", "meta": {"OBJECT_NAME": "NEMO-HD", "OBJECT_ID": "2020-061F", "EPOCH": "2025-12-14T23:13:59.096640", "MEAN_MOTION": 15.40379896, "ECCENTRICITY": 0.00017357, "INCLINATION": 97.2215, "RA_OF_ASC_NODE": 48.0376, "ARG_OF_PERICENTER": 54.1799, "MEAN_ANOMALY": 305.9609, "EPHEMERIS_TYPE": 0, "CLASSIFICATION_TYPE": "U", "NORAD_CAT_ID": 46277, "ELEMENT_SET_NO": 999, "REV_AT_EPOCH": 29358, "BSTAR": 0.00020560485, "MEAN_MOTION_DOT": 8.224e-05, "MEAN_MOTION_DDOT": 0}, "tle": {"line1": "1 46277U 20061F   25348.96804510  .00008224  00000+0  20560-3 0  9991", "line2": "2 46277  97.2215  48.0376 0001735  54.1799 305.9609 15.40379896293584"}}, "geometry": {"type": "Point", "coordinates": [59.71157923947827, -55.87975122805032]}}, {"type": "Feature", "properties": {"norad_id": 46984, "name": "SENTINEL-6A", "group": "resource", "lat": 52.35721754342524, "lon": -59.39309098752924, "alt_km": 1337.03258274797, "timestamp": "2025-12-15T20:48:53.542964+00:00", "meta": {"OBJECT_NAME": "SENTINEL-6A", "OBJECT_ID": "2020-086A", "EPOCH": "2025-12-14T19:49:51.591648", "MEAN_MOTION": 12.80930707, "ECCENTRICITY": 0.00077257, "INCLINATION": 66.039, "RA_OF_ASC_NODE": 157.9742, "ARG_OF_PERICENTER": 269.242, "MEAN_ANOMALY": 90.771, "EPHEMERIS_TYPE": 0, "CLASSIFICATION_TYPE": "U", "NORAD_CAT_ID": 46984, "ELEMENT_SET_NO": 999, "REV_AT_EPOCH": 23671, "BSTAR": 0.00015278314, "MEAN_MOTION_DOT": -2.6e-07, "MEAN_MOTION_DDOT": 0}, "tle": {"line1": "1 46984U 20086A   25348.82629157 -.00000026  00000+0  15278-3 0  9993", "line2": "2 46984  66.0390 157.9742 0007725 269.2420  90.7710 12.80930707236718"}}, "geometry": {"type": "Point", "coordinates": [-59.39309098752924, 52.35721754342524]}}, {"type": "Feature", "properties": {"norad_id": 48079, "name": "GAOFEN-12 02", "group": "resource", "lat": 80.94094091468054, "lon": -134.4508680422216, "alt_km": 617.2475804237965, "timestamp": "2025-12-15T20:48:53.542975+00:00", "meta": {"OBJECT_NAME": "GAOFEN-12 02", "OBJECT_ID": "2021-026A", "EPOCH": "2025-12-14T23:18:23.901408", "MEAN_MOTION": 14.80677667, "ECCENTRICITY": 0.00035766, "INCLINATION": 97.9852, "RA_OF_ASC_NODE": 342.9667, "ARG_OF_PERICENTER": 96.5815, "MEAN_ANOMALY": 263.5805, "EPHEMERIS_TYPE": 0, "CLASSIFICATION_TYPE": "U", "NORAD_CAT_ID": 48079, "ELEMENT_SET_NO": 999, "REV_AT_EPOCH": 25450, "BSTAR": 7.9716632e-05, "MEAN_MOTION_DOT": 5.6e-06, "MEAN_MOTION_DDOT": 0}, "tle": {"line1": "1 48079U 21026A   25348.97110997  .00000560  00000+0  79717-4 0  9999", "line2": "2 48079  97.9852 342.9667 0003576  96.5815 263.5805 14.80677667254509"}}, "geometry": {"type": "Point", "coordinates": [-134.4508680422216, 80.94094091468054]}}, {"type": "Feature", "properties": {"norad_id": 48268, "name": "PLEIADES NEO 3", "group": "resource", "lat": 7.364726129355466, "lon": -116.70953301419324, "alt_km": 625.9296830738285, "timestamp": "2025-12-15T20:48:53.542985+00:00", "meta": {"OBJECT_NAME": "PLEIADES NEO 3", "OBJECT_ID": "2021-034A", "EPOCH": "2025-12-14T22:58:08.625792", "MEAN_MOTION": 14.81672474, "ECCENTRICITY": 0.00013133, "INCLINATION": 97.8944, "RA_OF_ASC_NODE": 61.3658, "ARG_OF_PERICENTER": 93.0614, "MEAN_ANOMALY": 267.0749, "EPHEMERIS_TYPE": 0, "CLASSIFICATION_TYPE": "U", "NORAD_CAT_ID": 48268, "ELEMENT_SET_NO": 999, "REV_AT_EPOCH": 25037, "BSTAR": 0.00024173836, "MEAN_MOTION_DOT": 1.851e-05, "MEAN_MOTION_DDOT": 0}, "tle": {"line1": "1 48268U 21034A   25348.95704428  .00001851  00000+0  24174-3 0  9994", "line2": "2 48268  97.8944  61.3658 0001313  93.0614 267.0749 14.81672474250377"}}, "geometry": {"type": "Point", "coordinates": [-116.70953301419324, 7.364726129355466]}}, {"type": "Feature", "properties": {"norad_id": 49070, "name": "PLEIADES NEO 4", "group": "resource", "lat": -7.591784250168188, "lon": 63.31907572713869, "alt_km": 628.2176637477569, "timestamp": "2025-12-15T20:48:53.542995+00:00", "meta": {"OBJECT_NAME": "PLEIADES NEO 4", "OBJECT_ID": "2021-073E", "EPOCH": "2025-12-15T04:38:29.626080", "MEAN_MOTION": 14.81670614, "ECCENTRICITY": 0.0001261, "INCLINATION": 97.8948, "RA_OF_ASC_NODE": 61.5952, "ARG_OF_PERICENTER": 98.0508, "MEAN_ANOMALY": 262.0848, "EPHEMERIS_TYPE": 0, "CLASSIFICATION_TYPE": "U", "NORAD_CAT_ID": 49070, "ELEMENT_SET_NO": 999, "REV_AT_EPOCH": 23412, "BSTAR": 1.0065e-05, "MEAN_MOTION_DOT": 2.7e-07, "MEAN_MOTION_DDOT": 0}, "tle": {"line1": "1 49070U 21073E   25349.19339845  .00000027  00000+0  10065-4 0  9992", "line2": "2 49070  97.8948  61.5952 0001261  98.0508 262.0848 14.81670614234125"}}, "geometry": {"type": "Point", "coordinates": [63.31907572713869, -7.591784250168188]}}, {"type": "Feature", "properties": {"norad_id": 49260, "name": "LANDSAT 9", "group": "resource", "lat": 81.27034861747329, "lon": -51.988332345625736, "alt_km": 694.2852401438013, "timestamp": "2025-12-15T20:48:53.543005+00:00", "meta": {"OBJECT_NAME": "LANDSAT 9", "OBJECT_ID": "2021-088A", "EPOCH": "2025-12-14T19:40:07.342752", "MEAN_MOTION": 14.57100223, "ECCENTRICITY": 0.00011604, "INCLINATION": 98.2093, "RA_OF_ASC_NODE": 56.9004, "ARG_OF_PERICENTER": 89.4668, "MEAN_ANOMALY": 270.6664, "EPHEMERIS_TYPE": 0, "CLASSIFICATION_TYPE": "U", "NORAD_CAT_ID": 49260, "ELEMENT_SET_NO": 999, "REV_AT_EPOCH": 22415, "BSTAR": 0.0001241768, "MEAN_MOTION_DOT": 5.14e-06, "MEAN_MOTION_DDOT": 0}, "tle": {"line1": "1 49260U 21088A   25348.81952943  .00000514  00000+0  12418-3 0  9991", "line2": "2 49260  98.2093  56.9004 0001160  89.4668 270.6664 14.57100223224157"}}, "geometry": {"type": "Point", "coordinates": [-51.988332345625736, 81.27034861747329]}}]}